NORAD_CAT_ID,OBJECT_NAME,OBJECT_TYPE,EPOCH,MEAN_MOTION,ECCENTRICITY,INCLINATION,RA_OF_ASC_NODE,ARG_OF_PERICENTER,MEAN_ANOMALY,BSTAR,MEAN_MOTION_DOT,MEAN_MOTION_DDOT,TLE_LINE0,TLE_LINE1,TLE_LINE2,SEMIMAJOR_AXIS,PERIOD,APOGEE,PERIGEE,DECAYED
53038.0,STARLINK-4156,PAYLOAD,2022-09-26 12:00:00,15.73154461,0.0004468999999999,53.2136,338.9418,353.6735,319.5608,0.00025638,0.00035457,0.0,0 STARLINK-4156,1 53038U 22076BE  22269.50001157  .00035457  00000-0  25638-3 0  9997,2 53038  53.2136 338.9418 0004469 353.6735 319.5608 15.73154461 13229,6728.025,91.536,352.897,346.8830000000001,0.0
53038.0,STARLINK-4156,PAYLOAD,2022-09-26 14:00:01,15.73146363,0.0004508,53.2136,338.5298,353.655,71.805,0.00056544,0.0007934,0.0,0 STARLINK-4156,1 53038U 22076BE  22269.58334491  .00079340  00000-0  56544-3 0  9994,2 53038  53.2136 338.5298 0004508 353.6550  71.8050 15.73146363  1307,6728.0480000000025,91.536,352.946,346.88,0.0
53038.0,STARLINK-4156,PAYLOAD,2022-09-26 22:00:00,15.73233069,0.0004338,53.2133,336.8787,352.6813,161.6711,-0.0004325,-0.00061008,0.0,0 STARLINK-4156,1 53038U 22076BE  22269.91667824 -.00061008  00000-0 -43250-3 0  9994,2 53038  53.2133 336.8787 0004338 352.6813 161.6711 15.73233069  1302,6727.801,91.531,352.584,346.747,0.0
53038.0,STARLINK-4156,PAYLOAD,2022-09-27 14:00:01,15.731962,0.0004569,53.2134,333.5811,353.8761,338.3549,0.00073447,0.00103768,0.0,0 STARLINK-4156,1 53038U 22076BE  22270.58334491  .00103768  00000-0  73447-3 0  9999,2 53038  53.2134 333.5811 0004569 353.8761 338.3549 15.73196200 13407,6727.906,91.533,352.845,346.69699999999995,0.0
53038.0,STARLINK-4156,PAYLOAD,2022-09-27 22:00:01,15.7330605,0.000443,53.2149,331.9224,351.414,69.8587,-0.00032521,-0.00046252,0.0,0 STARLINK-4156,1 53038U 22076BE  22270.91668981 -.00046252  00000-0 -32521-3 0  9994,2 53038  53.2149 331.9224 0004430 351.4140  69.8587 15.73306050  1305,6727.593000000003,91.527,352.43800000000016,346.478,0.0
53038.0,STARLINK-4156,PAYLOAD,2022-09-28 06:00:00,15.73240992,0.0004261,53.2169,330.2547,339.917,170.1949,-0.0031519,-0.00422608,0.0,0 STARLINK-4156,1 53038U 22076BE  22271.25001157 -.00422608  00000-0 -31519-2 0  9996,2 53038  53.2169 330.2547 0004261 339.9170 170.1949 15.73240992 13508,6727.778,91.531,352.51,346.777,0.0
53038.0,STARLINK-4156,PAYLOAD,2022-09-28 14:00:01,15.73035936,0.0004516999999999,53.2176,328.6044,307.4563,291.4545,-0.0086144999999999,-0.01079271,0.0,0 STARLINK-4156,1 53038U 22076BE  22271.58334491 -.01079271  00000-0 -86145-2 0  9992,2 53038  53.2176 328.6044 0004517 307.4563 291.4545 15.73035936  1303,6728.363,91.543,353.267,347.189,0.0
53038.0,STARLINK-4156,PAYLOAD,2022-09-28 22:00:00,15.72202787,0.0006062,53.2166,326.9595,282.0582,45.1354,-0.0080469,-0.00983324,0.0,0 STARLINK-4156,1 53038U 22076BE  22271.91667824 -.00983324  00000-0 -80469-2 0  9993,2 53038  53.2166 326.9595 0006062 282.0582  45.1354 15.72202787  1301,6730.74,91.591,356.685,348.525,0.0
53038.0,STARLINK-4156,PAYLOAD,2022-09-29 14:00:01,15.70782206,0.0005767999999999,53.2165,323.6717,271.5453,229.3536,-0.0098073999999999,-0.01112825,0.0,0 STARLINK-4156,1 53038U 22076BE  22272.58334491 -.01112825  00000-0 -98074-2 0  9990,2 53038  53.2165 323.6717 0005768 271.5453 229.3536 15.70782206  1307,6734.797,91.674,360.547,352.778,0.0
53038.0,STARLINK-4156,PAYLOAD,2022-09-29 22:00:00,15.69976819,0.0002706,53.2177,322.0232,268.4743,317.9572,-0.009478,-0.0104514,0.0,0 STARLINK-4156,1 53038U 22076BE  22272.91667824 -.01045140  00000-0 -94780-2 0  9991,2 53038  53.2177 322.0232 0002706 268.4743 317.9572 15.69976819  1308,6737.1,91.721,360.788,357.142,0.0
53038.0,STARLINK-4156,PAYLOAD,2022-09-30 14:00:01,15.684929,0.0001127,53.2165,318.7499,290.9418,103.7479,-0.010554,-0.01088206,0.0,0 STARLINK-4156,1 53038U 22076BE  22273.58334491 -.01088206  00000-0 -10554-1 0  9992,2 53038  53.2165 318.7499 0001127 290.9418 103.7479 15.68492900  1307,6741.349,91.808,363.974,362.454,0.0
53038.0,STARLINK-4156,PAYLOAD,2022-09-30 22:00:00,15.67713139,9.62e-05,53.2169,317.1099,58.4873,58.9874,-0.010636,-0.01064545,0.0,0 STARLINK-4156,1 53038U 22076BE  22273.91667824 -.01064545  00000-0 -10636-1 0  9999,2 53038  53.2169 317.1099 0000962  58.4873  58.9874 15.67713139 13928,6743.584,91.854,366.098,364.8,0.0
53038.0,STARLINK-4156,PAYLOAD,2022-10-01 14:00:01,15.661803699999998,0.0001057,53.2166,313.8442,87.1693,193.1131,-0.011078,-0.01043807,0.0,0 STARLINK-4156,1 53038U 22076BE  22274.58334491 -.01043807  00000-0 -11078-1 0  9993,2 53038  53.2166 313.8442 0001057  87.1693 193.1131 15.66180370  1306,6747.983,91.943,370.561,369.135,0.0
53038.0,STARLINK-4156,PAYLOAD,2022-10-01 22:00:00,15.65423057,9.63e-05,53.2175,312.21,86.6148,273.7024,-0.011469,-0.0104757,0.0,0 STARLINK-4156,1 53038U 22076BE  22274.91667824 -.01047570  00000-0 -11469-1 0  9994,2 53038  53.2175 312.2100 0000963  86.6148 273.7024 15.65423057 14080,6750.159000000002,91.988,372.674,371.374,0.0
53038.0,STARLINK-4156,PAYLOAD,2022-10-02 14:00:01,15.63907482,0.0001295,53.2165,308.9565,70.7142,86.9258,-0.012221,-0.01050281,0.0,0 STARLINK-4156,1 53038U 22076BE  22275.58334491 -.01050281  00000-0 -12221-1 0  9999,2 53038  53.2165 308.9565 0001295  70.7142  86.9258 15.63907482 14184,6754.52,92.077,377.259,375.51,0.0
53038.0,STARLINK-4156,PAYLOAD,2022-10-02 22:00:00,15.63144274,0.0001155,53.2175,307.3282,85.7654,149.1734,-0.012537,-0.01061946,0.0,0 STARLINK-4156,1 53038U 22076BE  22275.91667824 -.01061946  00000-0 -12537-1 0  9995,2 53038  53.2175 307.3282 0001155  85.7654 149.1734 15.63144274  1306,6756.718000000003,92.122,379.36300000000006,377.80300000000005,0.0
53038.0,STARLINK-4156,PAYLOAD,2022-10-03 06:00:00,15.62401276,0.0001125999999999,53.2167,305.7059,96.9137,214.3984,-0.013212,-0.01084596,0.0,0 STARLINK-4156,1 53038U 22076BE  22276.25001157 -.01084596  00000-0 -13212-1 0  9991,2 53038  53.2167 305.7059 0001126  96.9137 214.3984 15.62401276 14290,6758.86,92.166,381.486,379.964,0.0
53038.0,STARLINK-4156,PAYLOAD,2022-10-03 14:00:01,15.61673326,0.000103,53.2161,304.0857,59.438,327.3264,-0.014159,-0.01125429,0.0,0 STARLINK-4156,1 53038U 22076BE  22276.58334491 -.01125429  00000-0 -14159-1 0  9999,2 53038  53.2161 304.0857 0001030  59.4380 327.3264 15.61673326  1300,6760.96,92.209,383.522,382.129,0.0
53038.0,STARLINK-4156,PAYLOAD,2022-10-03 22:00:00,15.60865993,0.0001219,53.2166,302.4639,58.2933,43.0535,-0.0137159999999999,-0.01062628,0.0,0 STARLINK-4156,1 53038U 22076BE  22276.91667824 -.01062628  00000-0 -13716-1 0  9994,2 53038  53.2166 302.4639 0001219  58.2933  43.0535 15.60865993  1300,6763.291,92.256,385.981,384.332,0.0
53038.0,STARLINK-4156,PAYLOAD,2022-10-04 06:00:00,15.60115514,0.0001245,53.2165,300.8462,88.1937,86.7922,-0.014281,-0.01073678,0.0,0 STARLINK-4156,1 53038U 22076BE  22277.25001157 -.01073678  00000-0 -14281-1 0  9998,2 53038  53.2165 300.8462 0001245  88.1937  86.7922 15.60115514 14440,6765.46,92.301,388.167,386.483,0.0
53038.0,STARLINK-4156,PAYLOAD,2022-10-04 14:00:01,15.59357799,0.0001189,53.2163,299.2312,73.5604,174.1553,-0.014734,-0.0107572,0.0,0 STARLINK-4156,1 53038U 22076BE  22277.58334491 -.01075720  00000-0 -14734-1 0  9997,2 53038  53.2163 299.2312 0001189  73.5604 174.1553 15.59357799  1303,6767.651999999999,92.346,390.321,388.712,0.0
53038.0,STARLINK-4156,PAYLOAD,2022-10-04 22:00:00,15.58586209,0.000104,53.2174,297.6147,79.7482,239.7935,-0.014921,-0.01059282,0.0,0 STARLINK-4156,1 53038U 22076BE  22277.91667824 -.01059282  00000-0 -14921-1 0  9996,2 53038  53.2174 297.6147 0001040  79.7482 239.7935 15.58586209  1302,6769.885,92.391,392.454,391.046,0.0
53038.0,STARLINK-4156,PAYLOAD,2022-10-05 08:00:01,15.57639309,0.0001304,53.2175,295.6012,68.0042,70.0255,-0.015522,-0.01062804,0.0,0 STARLINK-4156,1 53038U 22076BE  22278.33334491 -.01062804  00000-0 -15522-1 0  9996,2 53038  53.2175 295.6012 0001304  68.0042  70.0255 15.57639309 14616,6772.628000000002,92.448,395.376,393.61,0.0
53038.0,STARLINK-4156,PAYLOAD,2022-10-05 14:00:01,15.57081185,0.0001145,53.2167,294.3931,62.9798,37.519,-0.016109,-0.01078417,0.0,0 STARLINK-4156,1 53038U 22076BE  22278.58335648 -.01078417  00000-0 -16109-1 0  9997,2 53038  53.2167 294.3931 0001145  62.9798  37.5190 15.57081185  1308,6774.246999999999,92.481,396.887,395.336,0.0
53038.0,STARLINK-4156,PAYLOAD,2022-10-05 22:00:00,15.56309379,0.0001235,53.2173,292.7827,74.8271,94.6943,-0.016294,-0.01061366,0.0,0 STARLINK-4156,1 53038U 22076BE  22278.91667824 -.01061366  00000-0 -16294-1 0  9998,2 53038  53.2173 292.7827 0001235  74.8271  94.6943 15.56309379  1306,6776.486,92.527,399.18800000000016,397.514,0.0
53038.0,STARLINK-4156,PAYLOAD,2022-10-06 06:00:00,15.55548046,0.0001254,53.2175,291.1772,81.6727,156.0165,-0.016702,-0.01057839,0.0,0 STARLINK-4156,1 53038U 22076BE  22279.25001157 -.01057839  00000-0 -16702-1 0  9991,2 53038  53.2175 291.1772 0001254  81.6727 156.0165 15.55548046 14750,6778.696999999999,92.572,401.412,399.712,0.0
53038.0,STARLINK-4156,PAYLOAD,2022-10-06 14:00:01,15.54750303,0.0001075,53.2162,289.5719,70.4174,234.5455,-0.016268,-0.01005171,0.0,0 STARLINK-4156,1 53038U 22076BE  22279.58334491 -.01005171  00000-0 -16268-1 0  9996,2 53038  53.2162 289.5719 0001075  70.4174 234.5455 15.54750303  1302,6781.016,92.619,403.61,402.152,0.0
53038.0,STARLINK-4156,PAYLOAD,2022-10-06 22:42:55,15.5396388,0.0001264999999999,53.2172,287.8239,82.8232,95.2242,-0.017797,-0.01062625,0.0,0 STARLINK-4156,1 53038U 22076BE  22279.94646991 -.01062625  00000-0 -17797-1 0  9992,2 53038  53.2172 287.8239 0001265  82.8232  95.2242 15.53963880  1305,6783.303000000001,92.666,406.026,404.31,0.0
53038.0,STARLINK-4156,PAYLOAD,2022-10-07 00:00:00,15.53841101,0.0001207,53.2175,287.5666,79.2896,38.4409,-0.017835,-0.01060315,0.0,0 STARLINK-4156,1 53038U 22076BE  22280.00001157 -.01060315  00000-0 -17835-1 0  9997,2 53038  53.2175 287.5666 0001207  79.2896  38.4409 15.53841101 14872,6783.66,92.674,406.344,404.707,0.0
